{
  "norad_id": 64893,
  "name": "GEOSCAN 3 (RS92S3)",
  "history": [
    {
      "epoch": "2026-03-28T21:26:35.668896Z",
      "apogee_km": 474.25662684101917,
      "perigee_km": 462.5193551879238,
      "latitude_deg": -2.6425821026810393e-05,
      "longitude_deg": -90.9171955188548,
      "height_km": 472.92144094311953,
      "semi_major_axis_km": 6846.524991014471,
      "eccentricity": 0.00085717,
      "inclination_deg": 97.4473,
      "raan_deg": 57.0388,
      "arg_perigee_deg": 104.2452,
      "mean_anomaly_deg": 255.9742,
      "mean_motion_rev_day": 15.32489351
    },
    {
      "epoch": "2026-03-29T03:42:41.638176Z",
      "apogee_km": 474.2058507200045,
      "perigee_km": 462.4655193596991,
      "latitude_deg": 4.4452707522158144e-05,
      "longitude_deg": 175.06309235223063,
      "height_km": 472.8449399724273,
      "semi_major_axis_km": 6846.472685039852,
      "eccentricity": 0.0008574,
      "inclination_deg": 97.4474,
      "raan_deg": 57.3014,
      "arg_perigee_deg": 103.9982,
      "mean_anomaly_deg": 256.2214,
      "mean_motion_rev_day": 15.32506913
    },
    {
      "epoch": "2026-03-30T03:13:02.166240Z",
      "apogee_km": 474.03624112597754,
      "perigee_km": 462.32766645120773,
      "latitude_deg": 5.3059474998857516e-05,
      "longitude_deg": -177.5024866712056,
      "height_km": 472.46451219335086,
      "semi_major_axis_km": 6846.318953788592,
      "eccentricity": 0.0008551,
      "inclination_deg": 97.4475,
      "raan_deg": 58.2867,
      "arg_perigee_deg": 101.7619,
      "mean_anomaly_deg": 258.4583,
      "mean_motion_rev_day": 15.32558531
    },
    {
      "epoch": "2026-03-30T04:47:03.427872Z",
      "apogee_km": 474.02849268738555,
      "perigee_km": 462.313227603262,
      "latitude_deg": 8.367045743177958e-05,
      "longitude_deg": 158.99349751840793,
      "height_km": 472.4499649715356,
      "semi_major_axis_km": 6846.3078601453235,
      "eccentricity": 0.00085559,
      "inclination_deg": 97.4476,
      "raan_deg": 58.3523,
      "arg_perigee_deg": 101.7208,
      "mean_anomaly_deg": 258.4995,
      "mean_motion_rev_day": 15.32562256
    },
    {
      "epoch": "2026-03-30T14:11:10.688352Z",
      "apogee_km": 473.98023267233384,
      "perigee_km": 462.22099801946297,
      "latitude_deg": 2.366011264629216e-05,
      "longitude_deg": 17.971426662817382,
      "height_km": 472.29393405157157,
      "semi_major_axis_km": 6846.237615345898,
      "eccentricity": 0.00085881,
      "inclination_deg": 97.4478,
      "raan_deg": 58.7466,
      "arg_perigee_deg": 100.8253,
      "mean_anomaly_deg": 259.3956,
      "mean_motion_rev_day": 15.32585843
    },
    {
      "epoch": "2026-03-30T20:27:15.257952Z",
      "apogee_km": 473.92900410963284,
      "perigee_km": 462.1730039166605,
      "latitude_deg": -1.411145043208487e-05,
      "longitude_deg": -76.04222310960401,
      "height_km": 472.1573456754288,
      "semi_major_axis_km": 6846.188004013146,
      "eccentricity": 0.00085858,
      "inclination_deg": 97.4479,
      "raan_deg": 59.0094,
      "arg_perigee_deg": 99.9668,
      "mean_anomaly_deg": 260.2543,
      "mean_motion_rev_day": 15.32602502
    },
    {
      "epoch": "2026-03-31T21:31:31.568160Z",
      "apogee_km": 473.79023941276955,
      "perigee_km": 462.00957909932185,
      "latitude_deg": 1.7942656960567146e-05,
      "longitude_deg": -92.08802253266428,
      "height_km": 471.7462452958143,
      "semi_major_axis_km": 6846.036909256045,
      "eccentricity": 0.0008604,
      "inclination_deg": 97.4481,
      "raan_deg": 60.0612,
      "arg_perigee_deg": 97.3892,
      "mean_anomaly_deg": 262.8328,
      "mean_motion_rev_day": 15.3265324
    }
  ]
}